CELESTIS-17 & SHERPA-FX1
1 47486U 21006CB  26068.64311433  .00007207  00000+0  24301-3 0  9993
2 47486  97.2397 112.1052 0006630 178.1385 181.9882 15.30994801284065
STARLINK-31449          
1 58966U 24031B   26068.85886699  .00000625  00000+0  33231-4 0  9993
2 58966  53.1608 295.5906 0001233  92.1734 267.9408 15.30190507116566
